[{"OBJECT_NAME":"STARLINK-5680","OBJECT_ID":"2023-015G","EPOCH":"2026-03-09T23:34:41.359296","MEAN_MOTION":15.0253534,"ECCENTRICITY":0.00011534,"INCLINATION":43.0054,"RA_OF_ASC_NODE":324.7768,"ARG_OF_PERICENTER":264.6797,"MEAN_ANOMALY":95.3914,"EPHEMERIS_TYPE":0,"CLASSIFICATION_TYPE":"U","NORAD_CAT_ID":55455,"ELEMENT_SET_NO":999,"REV_AT_EPOCH":17079,"BSTAR":2.6221609e-5,"MEAN_MOTION_DOT":1.51e-6,"MEAN_MOTION_DDOT":0},{"OBJECT_NAME":"ELECTRON KICK STAGE R\/B","OBJECT_ID":"2024-219F","EPOCH":"2026-03-09T23:20:11.125536","MEAN_MOTION":14.96109186,"ECCENTRICITY":0.00508226,"INCLINATION":97.9798,"RA_OF_ASC_NODE":244.6751,"ARG_OF_PERICENTER":283.2555,"MEAN_ANOMALY":76.3,"EPHEMERIS_TYPE":0,"CLASSIFICATION_TYPE":"U","NORAD_CAT_ID":62086,"ELEMENT_SET_NO":999,"REV_AT_EPOCH":7010,"BSTAR":0.00053960044,"MEAN_MOTION_DOT":6.166e-5,"MEAN_MOTION_DDOT":0}]
